[{"OBJECT_NAME":"STARLINK-6220","OBJECT_ID":"2023-064AL","EPOCH":"2026-03-09T13:55:59.837088","MEAN_MOTION":14.98330554,"ECCENTRICITY":0.0003282,"INCLINATION":69.9998,"RA_OF_ASC_NODE":124.7071,"ARG_OF_PERICENTER":269.8057,"MEAN_ANOMALY":90.2726,"EPHEMERIS_TYPE":0,"CLASSIFICATION_TYPE":"U","NORAD_CAT_ID":56482,"ELEMENT_SET_NO":999,"REV_AT_EPOCH":15572,"BSTAR":-3.4061e-5,"MEAN_MOTION_DOT":-4.99e-6,"MEAN_MOTION_DDOT":0},{"OBJECT_NAME":"CZ-6A DEB","OBJECT_ID":"2024-140PK","EPOCH":"2026-03-09T14:50:49.125696","MEAN_MOTION":14.82233524,"ECCENTRICITY":0.0082184,"INCLINATION":89.0613,"RA_OF_ASC_NODE":285.2407,"ARG_OF_PERICENTER":189.4806,"MEAN_ANOMALY":170.4873,"EPHEMERIS_TYPE":0,"CLASSIFICATION_TYPE":"U","NORAD_CAT_ID":61117,"ELEMENT_SET_NO":999,"REV_AT_EPOCH":8234,"BSTAR":0.0019702,"MEAN_MOTION_DOT":0.0001671,"MEAN_MOTION_DDOT":0}]
